[{"OBJECT_NAME":"IOD-2","OBJECT_ID":"2025-135L","EPOCH":"2026-03-09T21:44:49.218144","MEAN_MOTION":15.19495389,"ECCENTRICITY":0.00054449,"INCLINATION":97.4569,"RA_OF_ASC_NODE":184.5694,"ARG_OF_PERICENTER":150.699,"MEAN_ANOMALY":209.4552,"EPHEMERIS_TYPE":0,"CLASSIFICATION_TYPE":"U","NORAD_CAT_ID":64538,"ELEMENT_SET_NO":999,"REV_AT_EPOCH":3974,"BSTAR":0.00029035696,"MEAN_MOTION_DOT":6.098e-5,"MEAN_MOTION_DDOT":0},{"OBJECT_NAME":"PEXT (BARD)","OBJECT_ID":"2025-154F","EPOCH":"2026-03-09T17:02:14.512416","MEAN_MOTION":15.19773826,"ECCENTRICITY":0.0001238,"INCLINATION":97.4066,"RA_OF_ASC_NODE":135.586,"ARG_OF_PERICENTER":270.8362,"MEAN_ANOMALY":89.2731,"EPHEMERIS_TYPE":0,"CLASSIFICATION_TYPE":"U","NORAD_CAT_ID":64874,"ELEMENT_SET_NO":999,"REV_AT_EPOCH":3473,"BSTAR":0.00020462446,"MEAN_MOTION_DOT":4.311e-5,"MEAN_MOTION_DDOT":0}]
